{"type":"FeatureCollection","features":[{"type":"Feature","properties":{"run":"cape-to-cape","runName":"Cape to Cape","role":"start","name":"Punta de Tarifa","detail":"Southernmost point of continental Europe"},"geometry":{"type":"Point","coordinates":[-5.6089,36.0018]}},{"type":"Feature","properties":{"run":"cape-to-cape","runName":"Cape to Cape","role":"finish","name":"Nordkapp","detail":"North Cape, Magerøya — northernmost road-reachable point of Europe"},"geometry":{"type":"Point","coordinates":[25.7833,71.1694]}},{"type":"Feature","properties":{"run":"roca-to-bosphorus","runName":"Roca to the Bosphorus","role":"start","name":"Cabo da Roca","detail":"Westernmost point of continental Europe"},"geometry":{"type":"Point","coordinates":[-9.4989,38.7803]}},{"type":"Feature","properties":{"run":"roca-to-bosphorus","runName":"Roca to the Bosphorus","role":"finish","name":"Sultanahmet, Istanbul","detail":"Across the Bosphorus — the eastern edge of Europe"},"geometry":{"type":"Point","coordinates":[28.9769,41.0055]}},{"type":"Feature","properties":{"run":"britain-circuit","runName":"The Britain Circuit","role":"start","name":"Land's End","detail":"Southwest tip of Great Britain"},"geometry":{"type":"Point","coordinates":[-5.7132,50.0657]}},{"type":"Feature","properties":{"run":"britain-circuit","runName":"The Britain Circuit","role":"finish","name":"Land's End","detail":"Back where it started"},"geometry":{"type":"Point","coordinates":[-5.7132,50.0657]}},{"type":"Feature","properties":{"run":"grand-tour","runName":"The Grand Tour","role":"start","name":"Barcelona","detail":"city centre intersection"},"geometry":{"type":"Point","coordinates":[2.1686,41.3874]}},{"type":"Feature","properties":{"run":"grand-tour","runName":"The Grand Tour","role":"finish","name":"Istanbul","detail":"city centre intersection"},"geometry":{"type":"Point","coordinates":[28.9769,41.0055]}},{"type":"Feature","properties":{"run":"grand-tour-menu","runName":"The Grand Tour","role":"start","name":"Barcelona","detail":"city centre intersection"},"geometry":{"type":"Point","coordinates":[2.1686,41.3874]}},{"type":"Feature","properties":{"run":"grand-tour-menu","runName":"The Grand Tour","role":"finish","name":"Istanbul","detail":"city centre intersection"},"geometry":{"type":"Point","coordinates":[28.9769,41.0055]}},{"type":"Feature","properties":{"run":"north-or-south","runName":"North or South","role":"start","name":"Barcelona","detail":"city centre intersection"},"geometry":{"type":"Point","coordinates":[2.1686,41.3874]}},{"type":"Feature","properties":{"run":"north-or-south","runName":"North or South","role":"finish","name":"Istanbul","detail":"city centre intersection"},"geometry":{"type":"Point","coordinates":[28.9769,41.0055]}}]}