{"type":"FeatureCollection","features":[{"type":"Feature","properties":{"run":"cape-to-cape","runName":"Cape to Cape","role":"start","name":"Punta de Tarifa","detail":"Southernmost point of continental Europe"},"geometry":{"type":"Point","coordinates":[-5.6089,36.0018]}},{"type":"Feature","properties":{"run":"cape-to-cape","runName":"Cape to Cape","role":"finish","name":"Nordkapp","detail":"North Cape, Magerøya — northernmost road-reachable point of Europe"},"geometry":{"type":"Point","coordinates":[25.7833,71.1694]}},{"type":"Feature","properties":{"run":"roca-to-bosphorus","runName":"Roca to the Bosphorus","role":"start","name":"Cabo da Roca","detail":"Westernmost point of continental Europe"},"geometry":{"type":"Point","coordinates":[-9.4989,38.7803]}},{"type":"Feature","properties":{"run":"roca-to-bosphorus","runName":"Roca to the Bosphorus","role":"finish","name":"Sultanahmet, Istanbul","detail":"Across the Bosphorus — the eastern edge of Europe"},"geometry":{"type":"Point","coordinates":[28.9769,41.0055]}}]}